satname,norad_id,inclination_deg,eccentricity,mean_motion_rev_per_day,perigee_km,apogee_km,l1,l2
STARLINK-1230,45189,53.155,0.0003061,15.32681707,465.7195939178009,469.9106858178284,1 45189U 20012M   26130.64301940  .00031312  00000+0  98580-3 0  9993,2 45189  53.1550 111.6703 0003061  71.0046 289.1288 15.32681707341652
STARLINK-1234,45190,53.0415,0.0008005,15.70779759,351.27603632374667,362.05845792339096,1 45190U 20012N   26130.83331191  .00044939  00000+0  35696-3 0  9995,2 45190  53.0415  19.3284 0008005 129.8506 230.3216 15.70779759345624
STARLINK-1269,45197,53.1546,0.0003018,15.32615309,465.94669671037263,470.0790327687291,1 45197U 20012V   26130.63890470  .00039847  00000+0  12526-2 0  9998,2 45197  53.1546 111.5389 0003018  52.5546 307.5730 15.32615309344404
STARLINK-1154,45198,53.0419,0.0003088,15.55970794,397.23923589231345,401.4250008198105,1 45198U 20012W   26130.54058796  .00059610  00000+0  84312-3 0  9999,2 45198  53.0419  72.6792 0003088  30.2328 329.8860 15.55970794344897
STARLINK-1199,45201,53.156,0.0002896,15.326958,465.79059894091733,469.7557501140027,1 45201U 20012Z   26130.87041770  .00031655  00000+0  99602-3 0  9991,2 45201  53.1560  94.7216 0002896  90.1572 269.9762 15.32695800344687
STARLINK-1209,45206,53.0402,0.0011576,15.6176443,374.73409009701663,390.38645642406937,1 45206U 20012AE  26130.43936402  .00077905  00000+0  87910-3 0  9990,2 45206  53.0402  34.1263 0011576 117.6643 242.5546 15.61764430344534
STARLINK-1231,45212,53.0395,0.0004272,15.26084615,484.5974595194657,490.4634858081099,1 45212U 20012AL  26130.59877241  .00031902  00000+0  12290-2 0  9994,2 45212  53.0395  90.2757 0004272  17.8652 342.2495 15.26084615344665
STARLINK-1271,45217,53.1547,0.0002822,15.3266958,465.9193135945188,469.78318936365395,1 45217U 20012AR  26130.60949432 -.00028758  00000+0 -89074-3 0  9995,2 45217  53.1547  96.0845 0002822  87.1116 273.0208 15.32669580344644
STARLINK-1191,45222,53.1544,0.0004851,15.36485392,453.1965389620236,459.8275154482171,1 45222U 20012AW  26130.85521024  .00038243  00000+0  10638-2 0  9998,2 45222  53.1544  68.7114 0004851  93.4163 266.7396 15.36485392345052
STARLINK-1212,45223,53.041,0.0004634,15.64369006,371.9246701707543,378.18352768123896,1 45223U 20012AX  26130.80742275  .00068404  00000+0  70049-3 0  9992,2 45223  53.0410  48.2765 0004634  68.2476 291.9031 15.64369006345325
STARLINK-1215,45225,53.1564,0.0002611,15.32951634,465.2242099940322,468.79874652937997,1 45225U 20012AZ  26130.54591145  .00044435  00000+0  13800-2 0  9992,2 45225  53.1564  70.6772 0002611 109.2404 250.8881 15.32951634344959
STARLINK-1221,45227,53.0665,0.0002756,15.43990616,432.4680427227004,436.2230831113802,1 45227U 20012BB  26130.83249128  .00010614  00000+0  23808-3 0  9999,2 45227  53.0665 334.6485 0002756 170.3513 189.7546 15.43990616346300
STARLINK-1222,45228,53.0538,9.86e-05,15.5333739,406.32092824079155,407.65895527370685,1 45228U 20012BC  26130.46371257  .00021835  00000+0  34633-3 0  9993,2 45228  53.0538  45.7816 0000986  62.3931 297.7179 15.53337390345211
STARLINK-1226,45229,53.1557,0.0003306,15.4117772,440.37734442911915,444.8872370841673,1 45229U 20012BD  26130.79601330  .00039143  00000+0  93425-3 0  9993,2 45229  53.1557  67.2562 0003306  99.8718 260.2661 15.41177720344966
STARLINK-1227,45230,53.1558,0.0004399,15.41282877,439.32172719154823,445.32236706120966,1 45230U 20012BE  26130.54865891  .00045626  00000+0  10826-2 0  9998,2 45230  53.1558  68.5611 0004399 100.7016 259.4485 15.41282877345048
STARLINK-1246,45235,53.1542,0.0003254,15.32835861,465.12862026732,469.58366720526374,1 45235U 20012BK  26130.64713212  .00031017  00000+0  97196-3 0  9998,2 45235  53.1542 111.1474 0003254  84.0776 276.0596 15.32835861344464
STARLINK-1270,45237,53.0426,0.0004483,15.57425091,392.0758903643664,398.1487857208549,1 45237U 20012BM  26130.84247475  .00067476  00000+0  90229-3 0  9993,2 45237  53.0426  48.2643 0004483  89.6892 270.4633 15.57425091345322
STARLINK-1279,45360,53.0364,0.0009048,15.708049,350.5017999430638,362.68897166841816,1 45360U 20019A   26130.49409990  .00045496  00000+0  36075-3 0  9997,2 45360  53.0364 155.8123 0009048  16.6031 343.5281 15.70804900340348
STARLINK-1301,45361,53.0386,0.0006387,15.72972965,346.1080183174736,354.7030585560733,1 45361U 20019B   26130.32232289  .00043452  00000+0  31510-3 0  9994,2 45361  53.0386 159.7721 0006387  35.1178 325.0259 15.72972965340283
STARLINK-1262,45366,53.1535,0.0002718,15.31903605,468.2717667190973,471.9944863598839,1 45366U 20019G   26130.59941650  .00018901  00000+0  61538-3 0  9991,2 45366  53.1535 237.6241 0002718 350.7498   9.3453 15.31903605339234
STARLINK-1273,45367,53.0456,0.0005169,15.53486081,403.04997026213186,410.06398689718753,1 45367U 20019H   26130.67208742  .00058408  00000+0  90465-3 0  9996,2 45367  53.0456 217.8722 0005169 319.4143  40.6480 15.53486081339508
STARLINK-1277,45369,53.0444,0.0006326,15.59542017,384.7007215970143,393.2624800507765,1 45369U 20019K   26130.48567815  .00059230  00000+0  73258-3 0  9991,2 45369  53.0444 214.1388 0006326 309.4819  50.5633 15.59542017339542
STARLINK-1281,45370,53.158,0.0003425,15.32806574,465.0987290856874,469.7879516188277,1 45370U 20019L   26130.56280683  .00033684  00000+0  10551-2 0  9998,2 45370  53.1580 237.6010 0003425 345.3968  14.6934 15.32806574339232
STARLINK-1300,45374,53.1578,0.000338,15.33049503,464.4065865468874,469.03370997911225,1 45374U 20019Q   26130.58219970  .00034567  00000+0  10741-2 0  9997,2 45374  53.1578 237.4920 0003380 356.6801   3.4177 15.33049503339239
STARLINK-1302,45375,53.0461,0.0004282,15.64709994,371.1816449785956,376.9642375723042,1 45375U 20019R   26130.49275991  .00028875  00000+0  29638-3 0  9994,2 45375  53.0461 211.0337 0004282 339.2877  20.7963 15.64709994339586
STARLINK-1304,45376,53.0438,0.0005392,15.58831033,387.3891632542218,394.6890427637063,1 45376U 20019S   26130.53058157  .00056659  00000+0  72057-3 0  9997,2 45376  53.0438 211.1284 0005392 331.0643  29.0069 15.58831033339589
STARLINK-1305,45377,53.0386,0.0010032,15.65008603,366.44106210158225,379.9869727829782,1 45377U 20019T   26130.43428808  .00029758  00000+0  30109-3 0  9993,2 45377  53.0386 191.7768 0010032 343.6101  16.4587 15.65008603339859
STARLINK-1319,45379,53.041,0.0004892,15.73147246,346.6172219740056,353.19994177130957,1 45379U 20019V   26130.70784597  .00042762  00000+0  30803-3 0  9996,2 45379  53.0410 183.4427 0004892   4.3503 355.7556 15.73147246339999
STARLINK-1266,45383,53.0443,0.000522,15.55220373,397.9731310670022,405.0510847356509,1 45383U 20019Z   26130.47882309  .00051197  00000+0  74592-3 0  9990,2 45383  53.0443 196.2816 0005220 325.3468  34.7201 15.55220373339787
STARLINK-1267,45384,53.0462,0.0007301,15.61091314,379.5661281590137,389.4409358638559,1 45384U 20019AA  26130.43190600  .00059315  00000+0  69126-3 0  9990,2 45384  53.0462 188.2974 0007301  10.4406 349.6756 15.61091314339894
STARLINK-1272,45386,53.04,0.0008373,15.66659673,362.82084455052154,374.1187122616402,1 45386U 20019AC  26130.47574110  .00032525  00000+0  30774-3 0  9999,2 45386  53.0400 167.8649 0008373   3.0606 357.0459 15.66659673340180
STARLINK-1274,45387,53.0232,0.0009559,15.5708127,389.63387216624324,402.58487638458246,1 45387U 20019AD  26130.46996514  .00054160  00000+0  73501-3 0  9999,2 45387  53.0232 165.3343 0009559  24.7503 335.3964 15.57081270340217
STARLINK-1280,45388,53.0377,0.0005717,15.73794523,344.2183267194314,351.9090645948454,1 45388U 20019AE  26130.47685778  .00050287  00000+0  35119-3 0  9997,2 45388  53.0377 177.1123 0005717   9.3612 350.7511 15.73794523340047
STARLINK-1283,45389,53.0396,0.0004256,15.67900248,362.0407076159181,367.78038968933197,1 45389U 20019AF  26130.45279880  .00035391  00000+0  31832-3 0  9996,2 45389  53.0396 167.3309 0004256  29.8835 330.2423 15.67900248340194
STARLINK-1284,45390,53.0406,0.0004481,15.66984168,364.5156063337663,370.56108057657093,1 45390U 20019AG  26130.45115954  .00032805  00000+0  30667-3 0  9991,2 45390  53.0406 190.9996 0004481 313.6382  46.4261 15.66984168339852
STARLINK-1297,45395,53.0417,0.0006268,15.65471608,367.6518498310297,376.113674604946,1 45395U 20019AM  26130.75616203  .00031781  00000+0  31571-3 0  9999,2 45395  53.0417 188.1998 0006268 325.3229  34.7376 15.65471608339109
STARLINK-1307,45397,53.0525,0.0001904,15.54812479,401.4067136157273,403.9888555016869,1 45397U 20019AP  26130.60986127  .00021491  00000+0  32326-3 0  9996,2 45397  53.0525 192.5095 0001904  21.5556 338.5534 15.54812479339674
STARLINK-1255,45399,53.0357,0.000665,15.61941924,377.5525647104414,386.54361087720645,1 45399U 20019AR  26130.35324170  .00063614  00000+0  71676-3 0  9998,2 45399  53.0357 163.4074 0006650  13.0938 347.0246 15.61941924340040
STARLINK-1260,45404,53.1569,0.0005172,15.35347585,456.35163985580857,463.4248931914999,1 45404U 20019AW  26130.59023200  .00027403  00000+0  79471-3 0  9998,2 45404  53.1569 200.7269 0005172 352.4221   7.6703 15.35347585339462
STARLINK-1263,45405,53.1586,0.0003769,15.32856402,464.7149450550587,469.8750316878941,1 45405U 20019AX  26130.51231486  .00026988  00000+0  84708-3 0  9994,2 45405  53.1586 201.8199 0003769  16.2951 343.8172 15.32856402339444
STARLINK-1265,45406,53.1562,0.0005152,15.35617299,455.5650232275175,462.6100994155031,1 45406U 20019AY  26130.45917294  .00025018  00000+0  72052-3 0  9998,2 45406  53.1562 201.4035 0005152 344.7381  15.3466 15.35617299339447
STARLINK-1278,45408,53.04,0.0006571,15.66171956,365.436217412358,374.3044486494273,1 45408U 20019BA  26130.47902318  .00031674  00000+0  30598-3 0  9997,2 45408  53.0400 188.6786 0006571 348.9815  11.1055 15.66171956339618
STARLINK-1296,45412,53.1569,0.0005472,15.35864981,454.611542335012,462.09339641029237,1 45412U 20019BE  26130.50282613  .00032001  00000+0  91048-3 0  9997,2 45412  53.1569 200.9335 0005472 342.9816  17.1003 15.35864981339456
